[{"OBJECT_NAME":"STARLINK-30178","OBJECT_ID":"2023-105T","EPOCH":"2026-03-09T22:00:01.999584","MEAN_MOTION":15.22405085,"ECCENTRICITY":8.111e-5,"INCLINATION":42.9995,"RA_OF_ASC_NODE":258.5418,"ARG_OF_PERICENTER":319.8962,"MEAN_ANOMALY":154.376,"EPHEMERIS_TYPE":0,"CLASSIFICATION_TYPE":"U","NORAD_CAT_ID":57447,"ELEMENT_SET_NO":999,"REV_AT_EPOCH":578,"BSTAR":0.0055738617,"MEAN_MOTION_DOT":0.00133479,"MEAN_MOTION_DDOT":0},{"OBJECT_NAME":"CZ-6A DEB","OBJECT_ID":"2022-151CX","EPOCH":"2026-03-09T21:16:17.872608","MEAN_MOTION":15.11183333,"ECCENTRICITY":0.00647114,"INCLINATION":99.0278,"RA_OF_ASC_NODE":217.0514,"ARG_OF_PERICENTER":197.6419,"MEAN_ANOMALY":162.256,"EPHEMERIS_TYPE":0,"CLASSIFICATION_TYPE":"U","NORAD_CAT_ID":54352,"ELEMENT_SET_NO":999,"REV_AT_EPOCH":10537,"BSTAR":0.0059033487,"MEAN_MOTION_DOT":0.00105485,"MEAN_MOTION_DDOT":0}]
